AMC-3                   
1 24936U 97050A   26062.99627912 -.00000271  00000+0  00000+0 0  9995
2 24936   7.8887  65.2783 0003483 287.8217  95.3034  1.00271818 51387
NSS-11                  
1 26554U 00059A   26063.12038751  .00000013  00000+0  00000+0 0  9992
2 26554   1.8553  82.6752 0003168 265.4583  33.0676  1.00271899 40238
AMC-6                   
1 26580U 00067A   26063.09419830  .00000076  00000+0  00000+0 0  9996
2 26580   0.0504 306.7725 0003116  39.4699  74.4412  1.00271968 92831
AMC-11                  
1 28252U 04017A   26063.13494759 -.00000062  00000+0  00000+0 0  9997
2 28252   0.0407  79.1113 0003229 268.9436 111.3012  1.00272347 79818
AMC-15                  
1 28446U 04041A   26063.02544715 -.00000102  00000+0  00000+0 0  9990
2 28446   0.0557 295.5970 0002437  56.5219  73.7714  1.00272791 78243
NSS-10                  
1 28526U 05003A   26063.03038905 -.00000262  00000+0  00000+0 0  9995
2 28526   6.1868  71.7253 0003267 276.0461 147.4943  1.00271349 52100
ASTRA 1KR               
1 29055U 06012A   26063.16077437  .00000106  00000+0  00000+0 0  9997
2 29055   0.2032  81.8267 0003400 244.8301 272.1245  1.00272123 44640
ASTRA 1L                
1 31306U 07016A   26063.15210765 -.00000196  00000+0  00000+0 0  9996
2 31306   1.0502  82.4242 0003331 274.8639 194.9166  1.00271290 43931
ASTRA 4A                
1 32299U 07057A   26063.15791435  .00000020  00000+0  00000+0 0  9996
2 32299   0.0536 292.9492 0002466  54.2024 236.4141  1.00273629 50593
ASTRA 1M                
1 33436U 08057A   26063.16077437  .00000107  00000+0  00000+0 0  9997
2 33436   0.0344  60.5809 0000783  12.2454 166.1515  1.00273826 44682
NSS-9                   
1 33749U 09008A   26063.12194753  .00000059  00000+0  00000+0 0  9994
2 33749   0.9900  83.7065 0002168 253.3390  51.7858  1.00272920 62462
SES-7 (PROTOSTAR 2)     
1 34941U 09027A   26062.96448998 -.00000358  00000+0  00000+0 0  9997
2 34941   0.0210 105.9616 0001523 200.1229 311.1004  1.00271899 61577
NSS-12                  
1 36032U 09058A   26063.09698742  .00000059  00000+0  00000+0 0  9990
2 36032   0.0269 288.7402 0005013  39.1040 285.9038  1.00272394 59861
SES-1                   
1 36516U 10016A   26063.14826354 -.00000127  00000+0  00000+0 0  9998
2 36516   0.0532 292.9508 0002547  41.3463 139.9689  1.00272453 57985
ASTRA 3B                
1 36581U 10021A   26063.09031405  .00000125  00000+0  00000+0 0  9992
2 36581   1.1965  84.9365 0003061 279.2388 213.6690  1.00271551 57811
SES-3                   
1 37748U 11035A   26063.13659425 -.00000114  00000+0  00000+0 0  9996
2 37748   1.0552  84.3096 0003577 264.8644 118.8743  1.00272162 53540
ASTRA 1N                
1 37775U 11041A   26063.16077437  .00000107  00000+0  00000+0 0  9994
2 37775   0.0688  20.0664 0004108 358.3719 220.5431  1.00273868 43470
