[{"OBJECT_NAME":"AMC-3","OBJECT_ID":"1997-050A","EPOCH":"2026-03-03T23:54:38.515968","MEAN_MOTION":1.00271818,"ECCENTRICITY":0.0003483,"INCLINATION":7.8887,"RA_OF_ASC_NODE":65.2783,"ARG_OF_PERICENTER":287.8217,"MEAN_ANOMALY":95.3034,"EPHEMERIS_TYPE":0,"CLASSIFICATION_TYPE":"U","NORAD_CAT_ID":24936,"ELEMENT_SET_NO":999,"REV_AT_EPOCH":5138,"BSTAR":0,"MEAN_MOTION_DOT":-2.71e-6,"MEAN_MOTION_DDOT":0},{"OBJECT_NAME":"NSS-11","OBJECT_ID":"2000-059A","EPOCH":"2026-03-04T02:53:21.480864","MEAN_MOTION":1.00271899,"ECCENTRICITY":0.0003168,"INCLINATION":1.8553,"RA_OF_ASC_NODE":82.6752,"ARG_OF_PERICENTER":265.4583,"MEAN_ANOMALY":33.0676,"EPHEMERIS_TYPE":0,"CLASSIFICATION_TYPE":"U","NORAD_CAT_ID":26554,"ELEMENT_SET_NO":999,"REV_AT_EPOCH":4023,"BSTAR":0,"MEAN_MOTION_DOT":1.3e-7,"MEAN_MOTION_DDOT":0},{"OBJECT_NAME":"AMC-6","OBJECT_ID":"2000-067A","EPOCH":"2026-03-04T02:15:38.733120","MEAN_MOTION":1.00271968,"ECCENTRICITY":0.0003116,"INCLINATION":0.0504,"RA_OF_ASC_NODE":306.7725,"ARG_OF_PERICENTER":39.4699,"MEAN_ANOMALY":74.4412,"EPHEMERIS_TYPE":0,"CLASSIFICATION_TYPE":"U","NORAD_CAT_ID":26580,"ELEMENT_SET_NO":999,"REV_AT_EPOCH":9283,"BSTAR":0,"MEAN_MOTION_DOT":7.6e-7,"MEAN_MOTION_DDOT":0},{"OBJECT_NAME":"AMC-11","OBJECT_ID":"2004-017A","EPOCH":"2026-03-04T03:14:19.471776","MEAN_MOTION":1.00272347,"ECCENTRICITY":0.0003229,"INCLINATION":0.0407,"RA_OF_ASC_NODE":79.1113,"ARG_OF_PERICENTER":268.9436,"MEAN_ANOMALY":111.3012,"EPHEMERIS_TYPE":0,"CLASSIFICATION_TYPE":"U","NORAD_CAT_ID":28252,"ELEMENT_SET_NO":999,"REV_AT_EPOCH":7981,"BSTAR":0,"MEAN_MOTION_DOT":-6.2e-7,"MEAN_MOTION_DDOT":0},{"OBJECT_NAME":"AMC-15","OBJECT_ID":"2004-041A","EPOCH":"2026-03-04T00:36:38.633760","MEAN_MOTION":1.00272791,"ECCENTRICITY":0.0002437,"INCLINATION":0.0557,"RA_OF_ASC_NODE":295.597,"ARG_OF_PERICENTER":56.5219,"MEAN_ANOMALY":73.7714,"EPHEMERIS_TYPE":0,"CLASSIFICATION_TYPE":"U","NORAD_CAT_ID":28446,"ELEMENT_SET_NO":999,"REV_AT_EPOCH":7824,"BSTAR":0,"MEAN_MOTION_DOT":-1.02e-6,"MEAN_MOTION_DDOT":0},{"OBJECT_NAME":"NSS-10","OBJECT_ID":"2005-003A","EPOCH":"2026-03-04T00:43:45.613920","MEAN_MOTION":1.00271349,"ECCENTRICITY":0.0003267,"INCLINATION":6.1868,"RA_OF_ASC_NODE":71.7253,"ARG_OF_PERICENTER":276.0461,"MEAN_ANOMALY":147.4943,"EPHEMERIS_TYPE":0,"CLASSIFICATION_TYPE":"U","NORAD_CAT_ID":28526,"ELEMENT_SET_NO":999,"REV_AT_EPOCH":5210,"BSTAR":0,"MEAN_MOTION_DOT":-2.62e-6,"MEAN_MOTION_DDOT":0},{"OBJECT_NAME":"ASTRA 1KR","OBJECT_ID":"2006-012A","EPOCH":"2026-03-04T03:51:30.905568","MEAN_MOTION":1.00272123,"ECCENTRICITY":0.00034,"INCLINATION":0.2032,"RA_OF_ASC_NODE":81.8267,"ARG_OF_PERICENTER":244.8301,"MEAN_ANOMALY":272.1245,"EPHEMERIS_TYPE":0,"CLASSIFICATION_TYPE":"U","NORAD_CAT_ID":29055,"ELEMENT_SET_NO":999,"REV_AT_EPOCH":4464,"BSTAR":0,"MEAN_MOTION_DOT":1.06e-6,"MEAN_MOTION_DDOT":0},{"OBJECT_NAME":"ASTRA 1L","OBJECT_ID":"2007-016A","EPOCH":"2026-03-04T03:39:02.100960","MEAN_MOTION":1.0027129,"ECCENTRICITY":0.0003331,"INCLINATION":1.0502,"RA_OF_ASC_NODE":82.4242,"ARG_OF_PERICENTER":274.8639,"MEAN_ANOMALY":194.9166,"EPHEMERIS_TYPE":0,"CLASSIFICATION_TYPE":"U","NORAD_CAT_ID":31306,"ELEMENT_SET_NO":999,"REV_AT_EPOCH":4393,"BSTAR":0,"MEAN_MOTION_DOT":-1.96e-6,"MEAN_MOTION_DDOT":0},{"OBJECT_NAME":"ASTRA 4A","OBJECT_ID":"2007-057A","EPOCH":"2026-03-04T03:47:23.799840","MEAN_MOTION":1.00273629,"ECCENTRICITY":0.0002466,"INCLINATION":0.0536,"RA_OF_ASC_NODE":292.9492,"ARG_OF_PERICENTER":54.2024,"MEAN_ANOMALY":236.4141,"EPHEMERIS_TYPE":0,"CLASSIFICATION_TYPE":"U","NORAD_CAT_ID":32299,"ELEMENT_SET_NO":999,"REV_AT_EPOCH":5059,"BSTAR":0,"MEAN_MOTION_DOT":2.0e-7,"MEAN_MOTION_DDOT":0},{"OBJECT_NAME":"ASTRA 1M","OBJECT_ID":"2008-057A","EPOCH":"2026-03-04T03:51:30.905568","MEAN_MOTION":1.00273826,"ECCENTRICITY":7.83e-5,"INCLINATION":0.0344,"RA_OF_ASC_NODE":60.5809,"ARG_OF_PERICENTER":12.2454,"MEAN_ANOMALY":166.1515,"EPHEMERIS_TYPE":0,"CLASSIFICATION_TYPE":"U","NORAD_CAT_ID":33436,"ELEMENT_SET_NO":999,"REV_AT_EPOCH":4468,"BSTAR":0,"MEAN_MOTION_DOT":1.07e-6,"MEAN_MOTION_DDOT":0},{"OBJECT_NAME":"NSS-9","OBJECT_ID":"2009-008A","EPOCH":"2026-03-04T02:55:36.266592","MEAN_MOTION":1.0027292,"ECCENTRICITY":0.0002168,"INCLINATION":0.99,"RA_OF_ASC_NODE":83.7065,"ARG_OF_PERICENTER":253.339,"MEAN_ANOMALY":51.7858,"EPHEMERIS_TYPE":0,"CLASSIFICATION_TYPE":"U","NORAD_CAT_ID":33749,"ELEMENT_SET_NO":999,"REV_AT_EPOCH":6246,"BSTAR":0,"MEAN_MOTION_DOT":5.9e-7,"MEAN_MOTION_DDOT":0},{"OBJECT_NAME":"SES-7 (PROTOSTAR 2)","OBJECT_ID":"2009-027A","EPOCH":"2026-03-03T23:08:51.934272","MEAN_MOTION":1.00271899,"ECCENTRICITY":0.0001523,"INCLINATION":0.021,"RA_OF_ASC_NODE":105.9616,"ARG_OF_PERICENTER":200.1229,"MEAN_ANOMALY":311.1004,"EPHEMERIS_TYPE":0,"CLASSIFICATION_TYPE":"U","NORAD_CAT_ID":34941,"ELEMENT_SET_NO":999,"REV_AT_EPOCH":6157,"BSTAR":0,"MEAN_MOTION_DOT":-3.58e-6,"MEAN_MOTION_DDOT":0},{"OBJECT_NAME":"NSS-12","OBJECT_ID":"2009-058A","EPOCH":"2026-03-04T02:19:39.713088","MEAN_MOTION":1.00272394,"ECCENTRICITY":0.0005013,"INCLINATION":0.0269,"RA_OF_ASC_NODE":288.7402,"ARG_OF_PERICENTER":39.104,"MEAN_ANOMALY":285.9038,"EPHEMERIS_TYPE":0,"CLASSIFICATION_TYPE":"U","NORAD_CAT_ID":36032,"ELEMENT_SET_NO":999,"REV_AT_EPOCH":5986,"BSTAR":0,"MEAN_MOTION_DOT":5.9e-7,"MEAN_MOTION_DDOT":0},{"OBJECT_NAME":"SES-1","OBJECT_ID":"2010-016A","EPOCH":"2026-03-04T03:33:29.969856","MEAN_MOTION":1.00272453,"ECCENTRICITY":0.0002547,"INCLINATION":0.0532,"RA_OF_ASC_NODE":292.9508,"ARG_OF_PERICENTER":41.3463,"MEAN_ANOMALY":139.9689,"EPHEMERIS_TYPE":0,"CLASSIFICATION_TYPE":"U","NORAD_CAT_ID":36516,"ELEMENT_SET_NO":999,"REV_AT_EPOCH":5798,"BSTAR":0,"MEAN_MOTION_DOT":-1.27e-6,"MEAN_MOTION_DDOT":0},{"OBJECT_NAME":"ASTRA 3B","OBJECT_ID":"2010-021A","EPOCH":"2026-03-04T02:10:03.133920","MEAN_MOTION":1.00271551,"ECCENTRICITY":0.0003061,"INCLINATION":1.1965,"RA_OF_ASC_NODE":84.9365,"ARG_OF_PERICENTER":279.2388,"MEAN_ANOMALY":213.669,"EPHEMERIS_TYPE":0,"CLASSIFICATION_TYPE":"U","NORAD_CAT_ID":36581,"ELEMENT_SET_NO":999,"REV_AT_EPOCH":5781,"BSTAR":0,"MEAN_MOTION_DOT":1.25e-6,"MEAN_MOTION_DDOT":0},{"OBJECT_NAME":"SES-3","OBJECT_ID":"2011-035A","EPOCH":"2026-03-04T03:16:41.743200","MEAN_MOTION":1.00272162,"ECCENTRICITY":0.0003577,"INCLINATION":1.0552,"RA_OF_ASC_NODE":84.3096,"ARG_OF_PERICENTER":264.8644,"MEAN_ANOMALY":118.8743,"EPHEMERIS_TYPE":0,"CLASSIFICATION_TYPE":"U","NORAD_CAT_ID":37748,"ELEMENT_SET_NO":999,"REV_AT_EPOCH":5354,"BSTAR":0,"MEAN_MOTION_DOT":-1.14e-6,"MEAN_MOTION_DDOT":0},{"OBJECT_NAME":"ASTRA 1N","OBJECT_ID":"2011-041A","EPOCH":"2026-03-04T03:51:30.905568","MEAN_MOTION":1.00273868,"ECCENTRICITY":0.0004108,"INCLINATION":0.0688,"RA_OF_ASC_NODE":20.0664,"ARG_OF_PERICENTER":358.3719,"MEAN_ANOMALY":220.5431,"EPHEMERIS_TYPE":0,"CLASSIFICATION_TYPE":"U","NORAD_CAT_ID":37775,"ELEMENT_SET_NO":999,"REV_AT_EPOCH":4347,"BSTAR":0,"MEAN_MOTION_DOT":1.07e-6,"MEAN_MOTION_DDOT":0}]
